CCSDS_OMM_VERS = 2.0
CREATION_DATE  = 
ORIGINATOR     = 

OBJECT_NAME    = CZ-2C R/B
OBJECT_ID      = 2022-132E
CENTER_NAME    = EARTH
REF_FRAME      = TEME
TIME_SYSTEM    = UTC
MEAN_ELEMENT_THEORY = SGP/SGP4

EPOCH          = 2026-02-24T11:43:02.333280
MEAN_MOTION    = 15.60594123
ECCENTRICITY   = .00204329
INCLINATION    = 97.2975
RA_OF_ASC_NODE = 58.4185
ARG_OF_PERICENTER = 133.5559
MEAN_ANOMALY   = 226.7399

EPHEMERIS_TYPE = 0
CLASSIFICATION_TYPE = U
NORAD_CAT_ID   = 54039
ELEMENT_SET_NO = 999
REV_AT_EPOCH   = 18831
BSTAR          = .47003959E-3
MEAN_MOTION_DOT = .39236E-3
MEAN_MOTION_DDOT = 0

CCSDS_OMM_VERS = 2.0
CREATION_DATE  = 
ORIGINATOR     = 

OBJECT_NAME    = GSLV R/B
OBJECT_ID      = 2022-138AN
CENTER_NAME    = EARTH
REF_FRAME      = TEME
TIME_SYSTEM    = UTC
MEAN_ELEMENT_THEORY = SGP/SGP4

EPOCH          = 2026-02-24T18:00:29.586816
MEAN_MOTION    = 14.96666640
ECCENTRICITY   = .00211851
INCLINATION    = 87.3877
RA_OF_ASC_NODE = 170.6918
ARG_OF_PERICENTER = 192.5990
MEAN_ANOMALY   = 167.4715

EPHEMERIS_TYPE = 0
CLASSIFICATION_TYPE = U
NORAD_CAT_ID   = 54149
ELEMENT_SET_NO = 999
REV_AT_EPOCH   = 18199
BSTAR          = .2663492E-3
MEAN_MOTION_DOT = .3079E-4
MEAN_MOTION_DDOT = 0

CCSDS_OMM_VERS = 2.0
CREATION_DATE  = 
ORIGINATOR     = 

OBJECT_NAME    = XRISM
OBJECT_ID      = 2023-137A
CENTER_NAME    = EARTH
REF_FRAME      = TEME
TIME_SYSTEM    = UTC
MEAN_ELEMENT_THEORY = SGP/SGP4

EPOCH          = 2026-02-24T23:03:27.119520
MEAN_MOTION    = 15.11324006
ECCENTRICITY   = .00083146
INCLINATION    = 31.0036
RA_OF_ASC_NODE = 5.9820
ARG_OF_PERICENTER = 271.8219
MEAN_ANOMALY   = 88.1467

EPHEMERIS_TYPE = 0
CLASSIFICATION_TYPE = U
NORAD_CAT_ID   = 57800
ELEMENT_SET_NO = 999
REV_AT_EPOCH   = 13586
BSTAR          = .31113878E-3
MEAN_MOTION_DOT = .5474E-4
MEAN_MOTION_DDOT = 0

CCSDS_OMM_VERS = 2.0
CREATION_DATE  = 
ORIGINATOR     = 

OBJECT_NAME    = ACS3
OBJECT_ID      = 2024-077B
CENTER_NAME    = EARTH
REF_FRAME      = TEME
TIME_SYSTEM    = UTC
MEAN_ELEMENT_THEORY = SGP/SGP4

EPOCH          = 2026-02-24T14:32:56.397120
MEAN_MOTION    = 13.88988446
ECCENTRICITY   = .0051455
INCLINATION    = 97.2136
RA_OF_ASC_NODE = 359.6603
ARG_OF_PERICENTER = 113.5156
MEAN_ANOMALY   = 247.1426

EPHEMERIS_TYPE = 0
CLASSIFICATION_TYPE = U
NORAD_CAT_ID   = 59588
ELEMENT_SET_NO = 999
REV_AT_EPOCH   = 9238
BSTAR          = .14691E-1
MEAN_MOTION_DOT = .17994E-3
MEAN_MOTION_DDOT = 0

CCSDS_OMM_VERS = 2.0
CREATION_DATE  = 
ORIGINATOR     = 

OBJECT_NAME    = SZ-21 MODULE
OBJECT_ID      = 2025-246C
CENTER_NAME    = EARTH
REF_FRAME      = TEME
TIME_SYSTEM    = UTC
MEAN_ELEMENT_THEORY = SGP/SGP4

EPOCH          = 2026-02-24T22:52:18.274656
MEAN_MOTION    = 15.67479968
ECCENTRICITY   = .00014681
INCLINATION    = 41.4747
RA_OF_ASC_NODE = 281.7034
ARG_OF_PERICENTER = 289.8220
MEAN_ANOMALY   = 70.2463

EPHEMERIS_TYPE = 0
CLASSIFICATION_TYPE = U
NORAD_CAT_ID   = 66515
ELEMENT_SET_NO = 999
REV_AT_EPOCH   = 1607
BSTAR          = .28097843E-3
MEAN_MOTION_DOT = .31159E-3
MEAN_MOTION_DDOT = 0

