CZ-2C R/B               
1 54039U 22132E   26055.48822145  .00039236  00000+0  47004-3 0  9993
2 54039  97.2975  58.4185 0020432 133.5559 226.7399 15.60594123188310
GSLV R/B                
1 54149U 22138AN  26055.75034244  .00003079  00000+0  26635-3 0  9999
2 54149  87.3877 170.6918 0021185 192.5990 167.4715 14.96666640181996
XRISM                   
1 57800U 23137A   26055.96073055  .00005474  00000+0  31114-3 0  9991
2 57800  31.0036   5.9820 0008314 271.8219  88.1467 15.11324006135865
ACS3                    
1 59588U 24077B   26055.60620830  .00017994  00000+0  14691-1 0  9999
2 59588  97.2136 359.6603 0051455 113.5156 247.1426 13.88988446 92386
SZ-21 MODULE            
1 66515U 25246C   26055.95298929  .00031159  00000+0  28098-3 0  9991
2 66515  41.4747 281.7034 0001468 289.8220  70.2463 15.67479968 16075
